{
    "links": {
        "self": "http://www.neowsapp.com/rest/v1/neo/3092301?api_key=iIulBulltgU6a56xZRHN4H3l9WmuAYTsLGpBGhQ2"
    },
    "id": "3092301",
    "neo_reference_id": "3092301",
    "name": "(2001 KD68)",
    "designation": "2001 KD68",
    "nasa_jpl_url": "http://ssd.jpl.nasa.gov/sbdb.cgi?sstr=3092301",
    "absolute_magnitude_h": 22.7,
    "estimated_diameter": {
        "kilometers": {
            "estimated_diameter_min": 0.0766575574,
            "estimated_diameter_max": 0.1714115092
        },
        "meters": {
            "estimated_diameter_min": 76.6575573531,
            "estimated_diameter_max": 171.4115092306
        },
        "miles": {
            "estimated_diameter_min": 0.0476327831,
            "estimated_diameter_max": 0.1065101409
        },
        "feet": {
            "estimated_diameter_min": 251.5011804664,
            "estimated_diameter_max": 562.3737359442
        }
    },
    "is_potentially_hazardous_asteroid": false,
    "close_approach_data": [
        {
            "close_approach_date": "2001-05-24",
            "close_approach_date_full": "2001-May-24 20:11",
            "epoch_date_close_approach": 990735060000,
            "relative_velocity": {
                "kilometers_per_second": "4.5402321253",
                "kilometers_per_hour": "16344.835651148",
                "miles_per_hour": "10156.0452411258"
            },
            "miss_distance": {
                "astronomical": "0.1702960645",
                "lunar": "66.2451690905",
                "kilometers": "25475928.518582615",
                "miles": "15830007.934225487"
            },
            "orbiting_body": "Earth"
        }
    ],
    "orbital_data": {
        "orbit_id": "13",
        "orbit_determination_date": "2017-04-06 09:16:20",
        "first_observation_date": "2001-05-31",
        "last_observation_date": "2001-06-19",
        "data_arc_in_days": 19,
        "observations_used": 20,
        "orbit_uncertainty": "8",
        "minimum_orbit_intersection": ".165458",
        "jupiter_tisserand_invariant": "3.349",
        "epoch_osculation": "2452067.5",
        "eccentricity": ".5060920950354654",
        "semi_major_axis": "2.384322863957506",
        "inclination": "2.044488288108224",
        "ascending_node_longitude": "249.9174744368934",
        "orbital_period": "1344.763837825544",
        "perihelion_distance": "1.177635910496291",
        "perihelion_argument": "350.4692480638822",
        "aphelion_distance": "3.591009817418721",
        "perihelion_time": "2452053.193198881075",
        "mean_anomaly": "3.830002159443232",
        "mean_motion": ".2677049976166171",
        "equinox": "J2000",
        "orbit_class": {
            "orbit_class_type": "AMO",
            "orbit_class_description": "Near-Earth asteroid orbits similar to that of 1221 Amor",
            "orbit_class_range": "1.017 AU < q (perihelion) < 1.3 AU"
        }
    },
    "is_sentry_object": false
}